{
    "links": {
        "self": "http://www.neowsapp.com/rest/v1/neo/54087832?api_key=iIulBulltgU6a56xZRHN4H3l9WmuAYTsLGpBGhQ2"
    },
    "id": "54087832",
    "neo_reference_id": "54087832",
    "name": "(2020 VD5)",
    "designation": "2020 VD5",
    "nasa_jpl_url": "http://ssd.jpl.nasa.gov/sbdb.cgi?sstr=54087832",
    "absolute_magnitude_h": 26.661,
    "estimated_diameter": {
        "kilometers": {
            "estimated_diameter_min": 0.0123695807,
            "estimated_diameter_max": 0.0276592232
        },
        "meters": {
            "estimated_diameter_min": 12.3695806516,
            "estimated_diameter_max": 27.6592231901
        },
        "miles": {
            "estimated_diameter_min": 0.0076860987,
            "estimated_diameter_max": 0.0171866392
        },
        "feet": {
            "estimated_diameter_min": 40.582614985,
            "estimated_diameter_max": 90.7454858111
        }
    },
    "is_potentially_hazardous_asteroid": false,
    "close_approach_data": [
        {
            "close_approach_date": "1984-11-24",
            "close_approach_date_full": "1984-Nov-24 06:56",
            "epoch_date_close_approach": 470127360000,
            "relative_velocity": {
                "kilometers_per_second": "21.3797410696",
                "kilometers_per_hour": "76967.0678505564",
                "miles_per_hour": "47824.342798586"
            },
            "miss_distance": {
                "astronomical": "0.2560006174",
                "lunar": "99.5842401686",
                "kilometers": "38297147.081724938",
                "miles": "23796743.7269146244"
            },
            "orbiting_body": "Earth"
        },
        {
            "close_approach_date": "2020-11-07",
            "close_approach_date_full": "2020-Nov-07 17:38",
            "epoch_date_close_approach": 1604770680000,
            "relative_velocity": {
                "kilometers_per_second": "13.7025753903",
                "kilometers_per_hour": "49329.2714050354",
                "miles_per_hour": "30651.2908905343"
            },
            "miss_distance": {
                "astronomical": "0.0187686948",
                "lunar": "7.3010222772",
                "kilometers": "2807756.764760076",
                "miles": "1744659.1527020088"
            },
            "orbiting_body": "Earth"
        }
    ],
    "orbital_data": {
        "orbit_id": "2",
        "orbit_determination_date": "2020-11-19 05:21:44",
        "first_observation_date": "2020-11-14",
        "last_observation_date": "2020-11-19",
        "data_arc_in_days": 5,
        "observations_used": 20,
        "orbit_uncertainty": "8",
        "minimum_orbit_intersection": ".018238",
        "jupiter_tisserand_invariant": "3.764",
        "epoch_osculation": "2459169.5",
        "eccentricity": ".5585778434965629",
        "semi_major_axis": "1.875829770519924",
        "inclination": "6.101956918548566",
        "ascending_node_longitude": "55.48223059445439",
        "orbital_period": "938.4012184288325",
        "perihelion_distance": ".8280328225362522",
        "perihelion_argument": "292.419185101814",
        "aphelion_distance": "2.923626718503595",
        "perihelion_time": "2459121.022059990395",
        "mean_anomaly": "18.59765104810693",
        "mean_motion": ".3836312154440175",
        "equinox": "J2000",
        "orbit_class": {
            "orbit_class_type": "APO",
            "orbit_class_description": "Near-Earth asteroid orbits which cross the Earth’s orbit similar to that of 1862 Apollo",
            "orbit_class_range": "a (semi-major axis) > 1.0 AU; q (perihelion) < 1.017 AU"
        }
    },
    "is_sentry_object": false
}